{
  "type": "FeatureCollection",
  "features": [
    {
      "type": "Feature",
      "properties": {
        "norad_id": 44793,
        "name": "BEIDOU-3 M22 (C44)",
        "group": "gnss",
        "lat": -18.63488708590225,
        "lon": -68.06043224237,
        "alt_km": 21519.1257045696,
        "timestamp": "2025-12-21T07:34:34.764440+00:00",
        "meta_object_name": "BEIDOU-3 M22 (C44)",
        "meta_object_id": "2019-078A",
        "meta_epoch": "2025-12-19T04:51:35.344224",
        "meta_mean_motion": 1.86232161,
        "meta_eccentricity": 0.0006038,
        "meta_inclination": 54.1023,
        "meta_ra_of_asc_node": 306.1592,
        "meta_arg_of_pericenter": 24.3104,
        "meta_mean_anomaly": 335.7082,
        "meta_ephemeris_type": 0,
        "meta_classification_type": "U",
        "meta_norad_cat_id": 44793,
        "meta_element_set_no": 999,
        "meta_rev_at_epoch": 4129,
        "meta_bstar": 0,
        "meta_mean_motion_dot": -7.7e-07,
        "meta_mean_motion_ddot": 0,
        "tle_line1": "1 44793U 19078A   25353.20249241 -.00000077  00000+0  00000+0 0  9997",
        "tle_line2": "2 44793  54.1023 306.1592 0006038  24.3104 335.7082  1.86232161 41295"
      },
      "geometry": {
        "type": "Point",
        "coordinates": [
          -68.06043224237,
          -18.63488708590225
        ]
      }
    },
    {
      "type": "Feature",
      "properties": {
        "norad_id": 44794,
        "name": "BEIDOU-3 M21 (C43)",
        "group": "gnss",
        "lat": -46.89960438004794,
        "lon": 176.73757421936787,
        "alt_km": 21540.67555050611,
        "timestamp": "2025-12-21T07:34:34.764451+00:00",
        "meta_object_name": "BEIDOU-3 M21 (C43)",
        "meta_object_id": "2019-078B",
        "meta_epoch": "2025-12-16T15:43:55.727904",
        "meta_mean_motion": 1.86227668,
        "meta_eccentricity": 0.00041169,
        "meta_inclination": 54.078,
        "meta_ra_of_asc_node": 306.2132,
        "meta_arg_of_pericenter": 11.942,
        "meta_mean_anomaly": 348.0544,
        "meta_ephemeris_type": 0,
        "meta_classification_type": "U",
        "meta_norad_cat_id": 44794,
        "meta_element_set_no": 999,
        "meta_rev_at_epoch": 4125,
        "meta_bstar": 0,
        "meta_mean_motion_dot": -9.5e-07,
        "meta_mean_motion_ddot": 0,
        "tle_line1": "1 44794U 19078B   25350.65550611 -.00000095  00000+0  00000+0 0  9990",
        "tle_line2": "2 44794  54.0780 306.2132 0004116  11.9420 348.0544  1.86227668 41256"
      },
      "geometry": {
        "type": "Point",
        "coordinates": [
          176.73757421936787,
          -46.89960438004794
        ]
      }
    },
    {
      "type": "Feature",
      "properties": {
        "norad_id": 44850,
        "name": "COSMOS 2544 (759)",
        "group": "gnss",
        "lat": 61.769602910551946,
        "lon": -158.44810581027915,
        "alt_km": 19152.981394329436,
        "timestamp": "2025-12-21T07:34:34.764465+00:00",
        "meta_object_name": "COSMOS 2544 (759)",
        "meta_object_id": "2019-088A",
        "meta_epoch": "2025-12-20T17:02:22.284096",
        "meta_mean_motion": 2.13102112,
        "meta_eccentricity": 0.0014152,
        "meta_inclination": 65.4642,
        "meta_ra_of_asc_node": 79.6917,
        "meta_arg_of_pericenter": 250.1796,
        "meta_mean_anomaly": 109.702,
        "meta_ephemeris_type": 0,
        "meta_classification_type": "U",
        "meta_norad_cat_id": 44850,
        "meta_element_set_no": 999,
        "meta_rev_at_epoch": 4691,
        "meta_bstar": 0,
        "meta_mean_motion_dot": -1.4e-07,
        "meta_mean_motion_ddot": 0,
        "tle_line1": "1 44850U 19088A   25354.70998014 -.00000014  00000+0  00000+0 0  9998",
        "tle_line2": "2 44850  65.4642  79.6917 0014152 250.1796 109.7020  2.13102112 46914"
      },
      "geometry": {
        "type": "Point",
        "coordinates": [
          -158.44810581027915,
          61.769602910551946
        ]
      }
    },
    {
      "type": "Feature",
      "properties": {
        "norad_id": 44864,
        "name": "BEIDOU-3 M19 (C41)",
        "group": "gnss",
        "lat": 55.19911340594687,
        "lon": 141.46190234292837,
        "alt_km": 21567.898457765372,
        "timestamp": "2025-12-21T07:34:34.764475+00:00",
        "meta_object_name": "BEIDOU-3 M19 (C41)",
        "meta_object_id": "2019-090A",
        "meta_epoch": "2025-12-20T17:56:37.822272",
        "meta_mean_motion": 1.86231652,
        "meta_eccentricity": 0.00182855,
        "meta_inclination": 56.3995,
        "meta_ra_of_asc_node": 68.6961,
        "meta_arg_of_pericenter": 285.0297,
        "meta_mean_anomaly": 134.3435,
        "meta_ephemeris_type": 0,
        "meta_classification_type": "U",
        "meta_norad_cat_id": 44864,
        "meta_element_set_no": 999,
        "meta_rev_at_epoch": 4091,
        "meta_bstar": 0,
        "meta_mean_motion_dot": -4e-07,
        "meta_mean_motion_ddot": 0,
        "tle_line1": "1 44864U 19090A   25354.74765998 -.00000040  00000+0  00000+0 0  9992",
        "tle_line2": "2 44864  56.3995  68.6961 0018285 285.0297 134.3435  1.86231652 40919"
      },
      "geometry": {
        "type": "Point",
        "coordinates": [
          141.46190234292837,
          55.19911340594687
        ]
      }
    },
    {
      "type": "Feature",
      "properties": {
        "norad_id": 44865,
        "name": "BEIDOU-3 M20 (C42)",
        "group": "gnss",
        "lat": 8.584691984015993,
        "lon": -117.02101235005048,
        "alt_km": 21553.389195099513,
        "timestamp": "2025-12-21T07:34:34.764486+00:00",
        "meta_object_name": "BEIDOU-3 M20 (C42)",
        "meta_object_id": "2019-090B",
        "meta_epoch": "2025-12-20T13:54:30.736224",
        "meta_mean_motion": 1.86231557,
        "meta_eccentricity": 0.00154748,
        "meta_inclination": 56.4009,
        "meta_ra_of_asc_node": 68.736,
        "meta_arg_of_pericenter": 297.1994,
        "meta_mean_anomaly": 99.0588,
        "meta_ephemeris_type": 0,
        "meta_classification_type": "U",
        "meta_norad_cat_id": 44865,
        "meta_element_set_no": 999,
        "meta_rev_at_epoch": 4089,
        "meta_bstar": 0,
        "meta_mean_motion_dot": -4.2e-07,
        "meta_mean_motion_ddot": 0,
        "tle_line1": "1 44865U 19090B   25354.57952241 -.00000042  00000+0  00000+0 0  9995",
        "tle_line2": "2 44865  56.4009  68.7360 0015474 297.1994  99.0588  1.86231557 40893"
      },
      "geometry": {
        "type": "Point",
        "coordinates": [
          -117.02101235005048,
          8.584691984015993
        ]
      }
    },
    {
      "type": "Feature",
      "properties": {
        "norad_id": 45344,
        "name": "BEIDOU-3 G2 (C60)",
        "group": "gnss",
        "lat": -2.1971870499924577,
        "lon": -76.21150846431289,
        "alt_km": 35777.28144676852,
        "timestamp": "2025-12-21T07:34:34.764496+00:00",
        "meta_object_name": "BEIDOU-3 G2 (C60)",
        "meta_object_id": "2020-017A",
        "meta_epoch": "2025-12-19T13:38:45.370752",
        "meta_mean_motion": 1.00273166,
        "meta_eccentricity": 0.0002079,
        "meta_inclination": 2.5096,
        "meta_ra_of_asc_node": 44.0024,
        "meta_arg_of_pericenter": 233.0917,
        "meta_mean_anomaly": 96.0359,
        "meta_ephemeris_type": 0,
        "meta_classification_type": "U",
        "meta_norad_cat_id": 45344,
        "meta_element_set_no": 999,
        "meta_rev_at_epoch": 2145,
        "meta_bstar": 0,
        "meta_mean_motion_dot": -1.18e-06,
        "meta_mean_motion_ddot": 0,
        "tle_line1": "1 45344U 20017A   25353.56858068 -.00000118  00000+0  00000+0 0  9993",
        "tle_line2": "2 45344   2.5096  44.0024 0002079 233.0917  96.0359  1.00273166 21451"
      },
      "geometry": {
        "type": "Point",
        "coordinates": [
          -76.21150846431289,
          -2.1971870499924577
        ]
      }
    },
    {
      "type": "Feature",
      "properties": {
        "norad_id": 45358,
        "name": "COSMOS 2545 (760)",
        "group": "gnss",
        "lat": -40.038390505110044,
        "lon": -65.01725150306162,
        "alt_km": 19122.273461299425,
        "timestamp": "2025-12-21T07:34:34.764506+00:00",
        "meta_object_name": "COSMOS 2545 (760)",
        "meta_object_id": "2020-018A",
        "meta_epoch": "2025-12-19T00:41:16.420128",
        "meta_mean_motion": 2.13102611,
        "meta_eccentricity": 0.0011548,
        "meta_inclination": 64.4657,
        "meta_ra_of_asc_node": 318.7488,
        "meta_arg_of_pericenter": 249.6698,
        "meta_mean_anomaly": 110.1972,
        "meta_ephemeris_type": 0,
        "meta_classification_type": "U",
        "meta_norad_cat_id": 45358,
        "meta_element_set_no": 999,
        "meta_rev_at_epoch": 4482,
        "meta_bstar": 0,
        "meta_mean_motion_dot": -6.1e-07,
        "meta_mean_motion_ddot": 0,
        "tle_line1": "1 45358U 20018A   25353.02866227 -.00000061  00000+0  00000+0 0  9993",
        "tle_line2": "2 45358  64.4657 318.7488 0011548 249.6698 110.1972  2.13102611 44827"
      },
      "geometry": {
        "type": "Point",
        "coordinates": [
          -65.01725150306162,
          -40.038390505110044
        ]
      }
    }
  ]
}